SATELIOT_2              
1 60534U 24149BU  26139.20405206  .00001047  00000+0  97799-4 0  9994
2 60534  97.6830 214.6905 0001534 115.7301 244.4079 14.96237897 95630
NIGHTJAR                
1 60535U 24149BV  26139.22018617  .00002076  00000+0  17697-3 0  9994
2 60535  97.6842 216.3306 0002110 131.0571 229.0835 14.98827669138539
LEMUR-2-MARHISYAM       
1 60536U 24149BW  26139.18738200  .00006804  00000+0  41590-3 0  9999
2 60536  97.6873 221.9506 0002097 178.3932 181.7304 15.10586460 96104
SATELIOT_4              
1 60537U 24149BX  26139.15401058  .00001787  00000+0  16211-3 0  9992
2 60537  97.6742 214.1883 0003594 116.8107 243.3483 14.96552912 95634
PICO-02A021             
1 60538U 24149BY  26138.67544307  .00003088  00000+0  23425-3 0  9995
2 60538  97.6769 217.7704 0007292 111.5960 248.6043 15.02946351 95309
ICEYE-X43               
1 60539U 24149BZ  26139.20546352  .00001808  00000+0  15099-3 0  9994
2 60539  97.6763 216.5707 0005269 176.6967 183.4292 14.99768716 95770
HAWK-10A                
1 60540U 24149CA  26139.14987319  .00001254  00000+0  11571-3 0  9997
2 60540  97.6894 215.5612 0004222 148.8311 211.3162 14.96410313 95640
UMBRA-09                
1 60541U 24149CB  26139.18696373  .00009583  00000+0  48739-3 0  9998
2 60541  97.6966 225.9194 0001242 123.2738 236.8614 15.17061729 96327
QPS-SAR-8 (AMATERU-IV)  
1 60542U 24149CC  26139.18559265  .00002606  00000+0  19406-3 0  9995
2 60542  97.6649 218.5861 0003165 186.4989 173.6196 15.03796463 95912
ARCTIC WEATHER SATELLITE
1 60543U 24149CD  26139.20575506  .00000530  00000+0  60867-4 0  9997
2 60543  97.6808 210.4981 0002162 163.7036 196.4252 14.89801875 94980
CAPELLA-15 (ACADIA-5)   
1 60544U 24149CE  26139.22453120  .00000783  00000+0  81691-4 0  9995
2 60544  97.6781 212.8485 0004658 159.3577 200.7832 14.92483719 95531
HAWK-10B                
1 60545U 24149CF  26139.14972596  .00001307  00000+0  12035-3 0  9998
2 60545  97.6816 214.9455 0005542 173.3934 186.7362 14.96411401 95643
ICEYE-X39               
1 60546U 24149CG  26139.18840578  .00001113  00000+0  94968-4 0  9998
2 60546  97.6808 216.6075 0002671 173.3538 186.7722 14.99706771 95776
UMBRA-10                
1 60547U 24149CH  26139.18650804  .00009945  00000+0  50549-3 0  9997
2 60547  97.6972 225.9443 0002153 101.4076 258.7399 15.17068623 96336
ICEYE-X33               
1 60548U 24149CJ  26139.23515794  .00003074  00000+0  24611-3 0  9990
2 60548  97.7190 218.5506 0000230 310.4166  49.7038 15.00913591 95864
ICEYE-X40               
1 60549U 24149CK  26139.17682875  .00000966  00000+0  87091-4 0  9998
2 60549  97.6822 216.1406 0005161 154.0035 206.1448 14.97845318 95730
SATELIOT_1              
1 60550U 24149CL  26139.17020612  .00001621  00000+0  14233-3 0  9991
2 60550  97.6762 215.5531 0007167 156.2203 203.9352 14.97943808 95727
BRO-14                  
1 60551U 24149CM  26139.16939181  .00000746  00000+0  71351-4 0  9993
2 60551  97.6880 215.4685 0006553 180.1930 179.9290 14.96118392 95655
SATELIOT_3              
1 60552U 24149CN  26139.21255598  .00001299  00000+0  11516-3 0  9993
2 60552  97.6817 216.3590 0005595 167.3775 192.7588 14.97917294 95742
BRO-15                  
1 60553U 24149CP  26139.15113876  .00000888  00000+0  84100-4 0  9992
2 60553  97.6806 215.0796 0008291 173.9058 186.2266 14.96072278 95663
UM5-RIBAT               
1 60554U 24149CQ  26139.20642918  .00001673  00000+0  13613-3 0  9996
2 60554  97.6657 217.3976 0003538 107.6679 252.4932 15.00891709 95845
UM5-EOSAT               
1 60555U 24149CR  26139.18100166  .00001942  00000+0  15559-3 0  9998
2 60555  97.6657 218.2781 0007324 199.9135 160.1805 15.01298354 95862
LASARSAT                
1 62391U 24247Q   26139.21153896  .00019872  00000+0  42671-3 0  9995
2 62391  44.9757  64.7984 0005507 164.9742 195.1312 15.44422391 78830
CROCUBE                 
1 62394U 24247T   26139.17767380  .00023066  00000+0  46732-3 0  9994
2 62394  44.9735  62.7604 0005257 168.6608 191.4402 15.46046066 78854
TEVEL2-4                
1 63213U 25052D   26139.22054831  .00010800  00000+0  33580-3 0  9995
2 63213  97.3933  35.5841 0002431 158.4179 201.7167 15.33501761 65672
TEVEL2-5                
1 63214U 25052E   26139.23794539  .00010535  00000+0  32927-3 0  9992
2 63214  97.3932  35.5573 0002380 157.6383 202.4964 15.33344467 65676
TEVEL2-6                
1 63215U 25052F   26138.46644105  .00010787  00000+0  33767-3 0  9992
2 63215  97.3937  34.7706 0002397 161.5493 198.5837 15.33288647 65553
TEVEL2-1                
1 63217U 25052H   26139.20365914  .00010553  00000+0  33537-3 0  9991
2 63217  97.3910  35.1653 0001944 172.3104 187.8168 15.32811898 65656
TEVEL2-3                
1 63218U 25052J   26139.26456222  .00010505  00000+0  33333-3 0  9992
2 63218  97.3911  35.2446 0001980 170.9929 189.1349 15.32861273 65667
TEVEL2-2                
1 63219U 25052K   26139.13883151  .00010345  00000+0  32879-3 0  9990
2 63219  97.3907  35.1025 0001878 173.5610 186.5657 15.32816144 65645
