OBJECT_NAME,OBJECT_ID,EPOCH,MEAN_MOTION,ECCENTRICITY,INCLINATION,RA_OF_ASC_NODE,ARG_OF_PERICENTER,MEAN_ANOMALY,EPHEMERIS_TYPE,CLASSIFICATION_TYPE,NORAD_CAT_ID,ELEMENT_SET_NO,REV_AT_EPOCH,BSTAR,MEAN_MOTION_DOT,MEAN_MOTION_DDOT
SATELIOT_2,2024-149BU,2026-05-19T04:53:50.097984,14.96237897,.00015342,97.6830,214.6905,115.7301,244.4079,0,U,60534,999,9563,.97798592E-4,.1047E-4,0
NIGHTJAR,2024-149BV,2026-05-19T05:17:04.085088,14.98827669,.00021103,97.6842,216.3306,131.0571,229.0835,0,U,60535,999,13853,.17696736E-3,.2076E-4,0
LEMUR-2-MARHISYAM,2024-149BW,2026-05-19T04:29:49.804800,15.10586460,.00020978,97.6873,221.9506,178.3932,181.7304,0,U,60536,999,9610,.41590015E-3,.6804E-4,0
SATELIOT_4,2024-149BX,2026-05-19T03:41:46.514112,14.96552912,.00035942,97.6742,214.1883,116.8107,243.3483,0,U,60537,999,9563,.16210629E-3,.1787E-4,0
PICO-02A021,2024-149BY,2026-05-18T16:12:38.281248,15.02946351,.00072925,97.6769,217.7704,111.5960,248.6043,0,U,60538,999,9530,.23425375E-3,.3088E-4,0
ICEYE-X43,2024-149BZ,2026-05-19T04:55:52.048128,14.99768716,.00052697,97.6763,216.5707,176.6967,183.4292,0,U,60539,999,9577,.15099496E-3,.1808E-4,0
HAWK-10A,2024-149CA,2026-05-19T03:35:49.043616,14.96410313,.00042223,97.6894,215.5612,148.8311,211.3162,0,U,60540,999,9564,.11570888E-3,.1254E-4,0
UMBRA-09,2024-149CB,2026-05-19T04:29:13.666272,15.17061729,.00012425,97.6966,225.9194,123.2738,236.8614,0,U,60541,999,9632,.48738724E-3,.9583E-4,0
QPS-SAR-8 (AMATERU-IV),2024-149CC,2026-05-19T04:27:15.204960,15.03796463,.0003165,97.6649,218.5861,186.4989,173.6196,0,U,60542,999,9591,.19406221E-3,.2606E-4,0
ARCTIC WEATHER SATELLITE,2024-149CD,2026-05-19T04:56:17.237184,14.89801875,.00021628,97.6808,210.4981,163.7036,196.4252,0,U,60543,999,9498,.60866909E-4,.53E-5,0
CAPELLA-15 (ACADIA-5),2024-149CE,2026-05-19T05:23:19.495680,14.92483719,.00046584,97.6781,212.8485,159.3577,200.7832,0,U,60544,999,9553,.81691249E-4,.783E-5,0
HAWK-10B,2024-149CF,2026-05-19T03:35:36.322944,14.96411401,.00055428,97.6816,214.9455,173.3934,186.7362,0,U,60545,999,9564,.1203465E-3,.1307E-4,0
ICEYE-X39,2024-149CG,2026-05-19T04:31:18.259392,14.99706771,.00026714,97.6808,216.6075,173.3538,186.7722,0,U,60546,999,9577,.94967956E-4,.1113E-4,0
UMBRA-10,2024-149CH,2026-05-19T04:28:34.294656,15.17068623,.00021538,97.6972,225.9443,101.4076,258.7399,0,U,60547,999,9633,.50549234E-3,.9945E-4,0
ICEYE-X33,2024-149CJ,2026-05-19T05:38:37.646016,15.00913591,.00002303,97.7190,218.5506,310.4166,49.7038,0,U,60548,999,9586,.24610619E-3,.3074E-4,0
ICEYE-X40,2024-149CK,2026-05-19T04:14:38.004000,14.97845318,.00051618,97.6822,216.1406,154.0035,206.1448,0,U,60549,999,9573,.8709082E-4,.966E-5,0
SATELIOT_1,2024-149CL,2026-05-19T04:05:05.808768,14.97943808,.00071677,97.6762,215.5531,156.2203,203.9352,0,U,60550,999,9572,.14233183E-3,.1621E-4,0
BRO-14,2024-149CM,2026-05-19T04:03:55.452384,14.96118392,.00065533,97.6880,215.4685,180.1930,179.9290,0,U,60551,999,9565,.71350625E-4,.746E-5,0
SATELIOT_3,2024-149CN,2026-05-19T05:06:04.836672,14.97917294,.00055959,97.6817,216.3590,167.3775,192.7588,0,U,60552,999,9574,.11516379E-3,.1299E-4,0
BRO-15,2024-149CP,2026-05-19T03:37:38.388864,14.96072278,.00082916,97.6806,215.0796,173.9058,186.2266,0,U,60553,999,9566,.84100415E-4,.888E-5,0
UM5-RIBAT,2024-149CQ,2026-05-19T04:57:15.481152,15.00891709,.0003538,97.6657,217.3976,107.6679,252.4932,0,U,60554,999,9584,.13613034E-3,.1673E-4,0
UM5-EOSAT,2024-149CR,2026-05-19T04:20:38.543424,15.01298354,.00073241,97.6657,218.2781,199.9135,160.1805,0,U,60555,999,9586,.15558972E-3,.1942E-4,0
LASARSAT,2024-247Q,2026-05-19T05:04:36.966144,15.44422391,.00055076,44.9757,64.7984,164.9742,195.1312,0,U,62391,999,7883,.42671438E-3,.19872E-3,0
CROCUBE,2024-247T,2026-05-19T04:15:51.016320,15.46046066,.0005257,44.9735,62.7604,168.6608,191.4402,0,U,62394,999,7885,.46732283E-3,.23066E-3,0
TEVEL2-4,2025-052D,2026-05-19T05:17:35.373984,15.33501761,.00024317,97.3933,35.5841,158.4179,201.7167,0,U,63213,999,6567,.33580047E-3,.108E-3,0
TEVEL2-5,2025-052E,2026-05-19T05:42:38.481696,15.33344467,.00023801,97.3932,35.5573,157.6383,202.4964,0,U,63214,999,6567,.32926915E-3,.10535E-3,0
TEVEL2-6,2025-052F,2026-05-18T11:11:40.506720,15.33288647,.00023975,97.3937,34.7706,161.5493,198.5837,0,U,63215,999,6555,.33767165E-3,.10787E-3,0
TEVEL2-1,2025-052H,2026-05-19T04:53:16.149696,15.32811898,.00019446,97.3910,35.1653,172.3104,187.8168,0,U,63217,999,6565,.33536704E-3,.10553E-3,0
TEVEL2-3,2025-052J,2026-05-19T06:20:58.175808,15.32861273,.000198,97.3911,35.2446,170.9929,189.1349,0,U,63218,999,6566,.33333094E-3,.10505E-3,0
TEVEL2-2,2025-052K,2026-05-19T03:19:55.042464,15.32816144,.00018785,97.3907,35.1025,173.5610,186.5657,0,U,63219,999,6564,.32878549E-3,.10345E-3,0
